#cP2005  4 19 00 00 00.00000000    2880 *POS* WGS84 FIT DLR*
## 1319 172800.00000000    30.00000000 53479 0.0000000000000
+    1   L06  0  0  0  0  0  0  0  0  0  0  0  0  0  0  0  0
+          0  0  0  0  0  0  0  0  0  0  0  0  0  0  0  0  0
+          0  0  0  0  0  0  0  0  0  0  0  0  0  0  0  0  0
+          0  0  0  0  0  0  0  0  0  0  0  0  0  0  0  0  0
+          0  0  0  0  0  0  0  0  0  0  0  0  0  0  0  0  0
++         0  0  0  0  0  0  0  0  0  0  0  0  0  0  0  0  0
++         0  0  0  0  0  0  0  0  0  0  0  0  0  0  0  0  0
++         0  0  0  0  0  0  0  0  0  0  0  0  0  0  0  0  0
++         0  0  0  0  0  0  0  0  0  0  0  0  0  0  0  0  0
++         0  0  0  0  0  0  0  0  0  0  0  0  0  0  0  0  0
%c cc cc ccc ccc cccc cccc cccc cccc ccccc ccccc ccccc ccccc
%c cc cc ccc ccc cccc cccc cccc cccc ccccc ccccc ccccc ccccc
%f   .0000000   .000000000   .00000000000   .000000000000000
%f   .0000000   .000000000   .00000000000   .000000000000000
%i    0    0    0    0      0      0      0      0         0
%i    0    0    0    0      0      0      0      0         0
/* NOTE: CCCCCCCCCCCCCCCCCCCCCCCCCCCCCCCCCCCCCCCCCCCCCCCCCCC
/* CCCCCCCCCCCCCCCCCCCCCCCCCCCCCCCCCCCCCCCCCCCCCCCCCCCCCCCCC
/* CCCCCCCCCCCCCCCCCCCCCCCCCCCCCCCCCCCCCCCCCCCCCCCCCCCCCCCCC
/* CCCCCCCCCCCCCCCCCCCCCCCCCCCCCCCCCCCCCCCCCCCCCCCCCCCCCCCCC
*  2005 04 19 14 43 30.00000000
PL06  -2167.001893   2709.004837  -5784.282814 999999.000000
*  2005 04 19 14 44 00.00000000
PL06  -2299.105031   2852.574691  -5662.912524 999999.000000
*  2005 04 19 14 44 30.00000000
PL06  -2427.919054   2993.406419  -5534.927028 999999.000000
*  2005 04 19 14 45 00.00000000
PL06  -2553.306180   3131.321040  -5400.474147 999999.000000
*  2005 04 19 14 45 30.00000000
PL06  -2675.133278   3266.142250  -5259.709294 999999.000000
*  2005 04 19 14 46 00.00000000
PL06  -2793.272012   3397.696652  -5112.795304 999999.000000
*  2005 04 19 14 46 30.00000000
PL06  -2907.598987   3525.813986  -4959.902262 999999.000000
*  2005 04 19 14 47 00.00000000
PL06  -3017.995881   3650.327354  -4801.207313 999999.000000
*  2005 04 19 14 47 30.00000000
PL06  -3124.349572   3771.073439  -4636.894469 999999.000000
*  2005 04 19 14 48 00.00000000
PL06  -3226.552260   3887.892727  -4467.154402 999999.000000
*  2005 04 19 14 48 30.00000000
PL06  -3324.501585   4000.629718  -4292.184238 999999.000000
*  2005 04 19 14 49 00.00000000
PL06  -3418.100732   4109.133141  -4112.187330 999999.000000
*  2005 04 19 14 49 30.00000000
PL06  -3507.258531   4213.256164  -3927.373031 999999.000000
*  2005 04 19 14 50 00.00000000
PL06  -3591.889551   4312.856588  -3737.956445 999999.000000
*  2005 04 19 14 50 30.00000000
PL06  -3671.914165   4407.797038  -3544.158198 999999.000000
*  2005 04 19 14 51 00.00000000
PL06  -3747.258638   4497.945161  -3346.204208 999999.000000
*  2005 04 19 14 51 30.00000000
PL06  -3817.855217   4583.173838  -3144.325423 999999.000000
*  2005 04 19 14 52 00.00000000
PL06  -3883.642185   4663.361358  -2938.757536 999999.000000
*  2005 04 19 14 52 30.00000000
PL06  -3944.563920   4738.391595  -2729.740728 999999.000000
*  2005 04 19 14 53 00.00000000
PL06  -4000.570957   4808.154183  -2517.519387 999999.000000
*  2005 04 19 14 53 30.00000000
PL06  -4051.620017   4872.544680  -2302.341824 999999.000000
*  2005 04 19 14 54 00.00000000
PL06  -4097.674049   4931.464731  -2084.459990 999999.000000
*  2005 04 19 14 54 30.00000000
PL06  -4138.702258   4984.822234  -1864.129178 999999.000000
*  2005 04 19 14 55 00.00000000
PL06  -4174.680127   5032.531484  -1641.607713 999999.000000
*  2005 04 19 14 55 30.00000000
PL06  -4205.589428   5074.513300  -1417.156643 999999.000000
*  2005 04 19 14 56 00.00000000
PL06  -4231.418220   5110.695165  -1191.039442 999999.000000
*  2005 04 19 14 56 30.00000000
PL06  -4252.160853   5141.011376   -963.521685 999999.000000
*  2005 04 19 14 57 00.00000000
PL06  -4267.817940   5165.403158   -734.870684 999999.000000
*  2005 04 19 14 57 30.00000000
PL06  -4278.396303   5183.818714   -505.355166 999999.000000
*  2005 04 19 14 58 00.00000000
PL06  -4283.908958   5196.213296   -275.244990 999999.000000
*  2005 04 19 14 58 30.00000000
PL06  -4284.375090   5202.549307    -44.810839 999999.000000
*  2005 04 19 14 59 00.00000000
PL06  -4279.819996   5202.796418    185.676106 999999.000000
*  2005 04 19 14 59 30.00000000
PL06  -4270.275050   5196.931665    415.944509 999999.000000
*  2005 04 19 15 00 00.00000000
PL06  -4255.777630   5184.939491    645.723254 999999.000000
*  2005 04 19 15 00 30.00000000
PL06  -4236.371026   5166.811767    874.741768 999999.000000
*  2005 04 19 15 01 00.00000000
PL06  -4212.104353   5142.547827   1102.730336 999999.000000
*  2005 04 19 15 01 30.00000000
PL06  -4183.032477   5112.154498   1329.420432 999999.000000
*  2005 04 19 15 02 00.00000000
PL06  -4149.215914   5075.646111   1554.545049 999999.000000
*  2005 04 19 15 02 30.00000000
PL06  -4110.720728   5033.044506   1777.839033 999999.000000
*  2005 04 19 15 03 00.00000000
PL06  -4067.618408   4984.379026   1999.039394 999999.000000
*  2005 04 19 15 03 30.00000000
PL06  -4019.985749   4929.686506   2217.885633 999999.000000
*  2005 04 19 15 04 00.00000000
PL06  -3967.904729   4869.011246   2434.120049 999999.000000
*  2005 04 19 15 04 30.00000000
PL06  -3911.462369   4802.404977   2647.488053 999999.000000
*  2005 04 19 15 05 00.00000000
PL06  -3850.750601   4729.926818   2857.738473 999999.000000
*  2005 04 19 15 05 30.00000000
PL06  -3785.866108   4651.643232   3064.623857 999999.000000
*  2005 04 19 15 06 00.00000000
PL06  -3716.910180   4567.627955   3267.900770 999999.000000
*  2005 04 19 15 06 30.00000000
PL06  -3643.988564   4477.961909   3467.330072 999999.000000
*  2005 04 19 15 07 00.00000000
PL06  -3567.211313   4382.733129   3662.677211 999999.000000
*  2005 04 19 15 07 30.00000000
PL06  -3486.692623   4282.036682   3853.712500 999999.000000
*  2005 04 19 15 08 00.00000000
PL06  -3402.550651   4175.974570   4040.211399 999999.000000
*  2005 04 19 15 08 30.00000000
PL06  -3314.907344   4064.655619   4221.954787 999999.000000
*  2005 04 19 15 09 00.00000000
PL06  -3223.888254   3948.195349   4398.729214 999999.000000
*  2005 04 19 15 09 30.00000000
PL06  -3129.622357   3826.715840   4570.327145 999999.000000
*  2005 04 19 15 10 00.00000000
PL06  -3032.241882   3700.345605   4736.547201 999999.000000
*  2005 04 19 15 10 30.00000000
PL06  -2931.882119   3569.219449   4897.194399 999999.000000
*  2005 04 19 15 11 00.00000000
PL06  -2828.681216   3433.478314   5052.080382 999999.000000
*  2005 04 19 15 11 30.00000000
PL06  -2722.779991   3293.269118   5201.023628 999999.000000
*  2005 04 19 15 12 00.00000000
PL06  -2614.321736   3148.744587   5343.849655 999999.000000
*  2005 04 19 15 12 30.00000000
PL06  -2503.452024   3000.063081   5480.391224 999999.000000
*  2005 04 19 15 13 00.00000000
PL06  -2390.318505   2847.388415   5610.488519 999999.000000
*  2005 04 19 15 13 30.00000000
PL06  -2275.070714   2690.889681   5733.989332 999999.000000
*  2005 04 19 15 14 00.00000000
PL06  -2157.859878   2530.741054   5850.749249 999999.000000
*  2005 04 19 15 14 30.00000000
PL06  -2038.838700   2367.121580   5960.631815 999999.000000
*  2005 04 19 15 15 00.00000000
PL06  -1918.161147   2200.214958   6063.508674 999999.000000
*  2005 04 19 15 15 30.00000000
PL06  -1795.982253   2030.209336   6159.259680 999999.000000
*  2005 04 19 15 16 00.00000000
PL06  -1672.457929   1857.297118   6247.773033 999999.000000
*  2005 04 19 15 16 30.00000000
PL06  -1547.744772   1681.674743   6328.945428 999999.000000
*  2005 04 19 15 17 00.00000000
PL06  -1421.999857   1503.542444   6402.682164 999999.000000
*  2005 04 19 15 17 30.00000000
PL06  -1295.380540   1323.104020   6468.897241 999999.000000
*  2005 04 19 15 18 00.00000000
PL06  -1168.044266   1140.566596   6527.513447 999999.000000
*  2005 04 19 15 18 30.00000000
PL06  -1040.148372    956.140402   6578.462447 999999.000000
*  2005 04 19 15 19 00.00000000
PL06   -911.849900    770.038526   6621.684868 999999.000000
*  2005 04 19 15 19 30.00000000
PL06   -783.305390    582.476660   6657.130362 999999.000000
*  2005 04 19 15 20 00.00000000
PL06   -654.670691    393.672850   6684.757650 999999.000000
*  2005 04 19 15 20 30.00000000
PL06   -526.100782    203.847244   6704.534563 999999.000000
*  2005 04 19 15 21 00.00000000
PL06   -397.749586     13.221847   6716.438077 999999.000000
*  2005 04 19 15 21 30.00000000
PL06   -269.769788   -177.979744   6720.454348 999999.000000
*  2005 04 19 15 22 00.00000000
PL06   -142.312648   -369.532598   6716.578723 999999.000000
*  2005 04 19 15 22 30.00000000
PL06    -15.527829   -561.210707   6704.815743 999999.000000
*  2005 04 19 15 23 00.00000000
PL06    110.436780   -752.787259   6685.179150 999999.000000
*  2005 04 19 15 23 30.00000000
PL06    235.435234   -944.034906   6657.691870 999999.000000
*  2005 04 19 15 24 00.00000000
PL06    359.323704  -1134.726035   6622.385991 999999.000000
*  2005 04 19 15 24 30.00000000
PL06    481.960653  -1324.633050   6579.302718 999999.000000
*  2005 04 19 15 25 00.00000000
PL06    603.206985  -1513.528623   6528.492302 999999.000000
*  2005 04 19 15 25 30.00000000
PL06    722.926183  -1701.185952   6470.014009 999999.000000
*  2005 04 19 15 26 00.00000000
PL06    840.984480  -1887.379048   6403.936077 999999.000000
*  2005 04 19 15 26 30.00000000
PL06    957.251020  -2071.883007   6330.335638 999999.000000
*  2005 04 19 15 27 00.00000000
PL06   1071.598000  -2254.474295   6249.298630 999999.000000
*  2005 04 19 15 27 30.00000000
PL06   1183.900801  -2434.931024   6160.919688 999999.000000
*  2005 04 19 15 28 00.00000000
PL06   1294.038120  -2613.033215   6065.302044 999999.000000
*  2005 04 19 15 28 30.00000000
PL06   1401.892099  -2788.563067   5962.557409 999999.000000
*  2005 04 19 15 29 00.00000000
PL06   1507.348454  -2961.305219   5852.805857 999999.000000
*  2005 04 19 15 29 30.00000000
PL06   1610.296606  -3131.047023   5736.175696 999999.000000
EOF
